start=new Date('2021-12-19T00:00:00.000Z').valueOf();
sats=[{"ARG_OF_PERICENTER":"58.3855","PERIOD":"95.592","MEAN_ELEMENT_THEORY":"SGP4","ECCENTRICITY":"0.00017410","APOAPSIS":"548.429","EPHEMERIS_TYPE":"0","MEAN_MOTION_DOT":"-0.00000376","INCLINATION":"53.0513","DECAY_DATE":null,"COUNTRY_CODE":"US","MEAN_MOTION_DDOT":"0.0000000000000","FILE":"3243681","BSTAR":"-0.00000632230000","OBJECT_ID":"2021-018W","RA_OF_ASC_NODE":"306.2340","NORAD_CAT_ID":"47807","MEAN_ANOMALY":"301.7303","TLE_LINE1":"1 47807U 21018W   21352.17482242 -.00000376  00000-0 -63223-5 0  9990","OBJECT_NAME":"STARLINK-2388","CLASSIFICATION_TYPE":"U","OBJECT_TYPE":"PAYLOAD","SEMIMAJOR_AXIS":"6925.358","TIME_SYSTEM":"UTC","PERIAPSIS":"546.018","TLE_LINE2":"2 47807  53.0513 306.2340 0001741  58.3855 301.7303 15.06396805 44514","REF_FRAME":"TEME","EPOCH":"2021-12-18T04:11:44.657088","REV_AT_EPOCH":"4451","MEAN_MOTION":"15.06396805","CENTER_NAME":"EARTH","SITE":"AFETR","LAUNCH_DATE":"2021-03-11","ELEMENT_SET_NO":"999","RCS_SIZE":"LARGE","GP_ID":"191943157"},{"SITE":"AFETR","REF_FRAME":"TEME","REV_AT_EPOCH":"4391","EPOCH":"2021-12-18T17:37:51.727008","MEAN_MOTION":"15.06404095","CENTER_NAME":"EARTH","GP_ID":"191946679","LAUNCH_DATE":"2021-03-11","RCS_SIZE":"LARGE","ELEMENT_SET_NO":"999","NORAD_CAT_ID":"47808","RA_OF_ASC_NODE":"328.7343","MEAN_ANOMALY":"297.9377","FILE":"3243777","BSTAR":"0.00009631400000","OBJECT_ID":"2021-018X","CLASSIFICATION_TYPE":"U","OBJECT_TYPE":"PAYLOAD","SEMIMAJOR_AXIS":"6925.336","TIME_SYSTEM":"UTC","TLE_LINE2":"2 47808  53.0566 328.7343 0001908  62.1806 297.9377 15.06404095 43910","PERIAPSIS":"545.880","TLE_LINE1":"1 47808U 21018X   21352.73462647  .00001153  00000-0  96314-4 0  9998","OBJECT_NAME":"STARLINK-2389","DECAY_DATE":null,"INCLINATION":"53.0566","COUNTRY_CODE":"US","MEAN_MOTION_DDOT":"0.0000000000000","ECCENTRICITY":"0.00019080","ARG_OF_PERICENTER":"62.1806","PERIOD":"95.592","MEAN_ELEMENT_THEORY":"SGP4","APOAPSIS":"548.522","EPHEMERIS_TYPE":"0","MEAN_MOTION_DOT":"0.00001153"},{"OBJECT_TYPE":"PAYLOAD","SEMIMAJOR_AXIS":"6925.348","CLASSIFICATION_TYPE":"U","TIME_SYSTEM":"UTC","TLE_LINE2":"2 47809  53.0554 334.8831 0001943  58.7193 301.3986 15.06400144 44207","PERIAPSIS":"545.868","OBJECT_NAME":"STARLINK-2390","TLE_LINE1":"1 47809U 21018Y   21352.47431104  .00001521  00000-0  12102-3 0  9995","RA_OF_ASC_NODE":"334.8831","NORAD_CAT_ID":"47809","MEAN_ANOMALY":"301.3986","BSTAR":"0.00012102000000","FILE":"3243681","OBJECT_ID":"2021-018Y","GP_ID":"191942155","LAUNCH_DATE":"2021-03-11","RCS_SIZE":"LARGE","ELEMENT_SET_NO":"999","SITE":"AFETR","EPOCH":"2021-12-18T11:23:00.473856","REV_AT_EPOCH":"4420","REF_FRAME":"TEME","MEAN_MOTION":"15.06400144","CENTER_NAME":"EARTH","APOAPSIS":"548.559","EPHEMERIS_TYPE":"0","MEAN_MOTION_DOT":"0.00001521","ECCENTRICITY":"0.00019430","ARG_OF_PERICENTER":"58.7193","PERIOD":"95.592","MEAN_ELEMENT_THEORY":"SGP4","COUNTRY_CODE":"US","MEAN_MOTION_DDOT":"0.0000000000000","DECAY_DATE":null,"INCLINATION":"53.0554"},{"ECCENTRICITY":"0.00018670","ARG_OF_PERICENTER":"59.6026","MEAN_ELEMENT_THEORY":"SGP4","PERIOD":"95.593","APOAPSIS":"548.525","MEAN_MOTION_DOT":"0.00000359","EPHEMERIS_TYPE":"0","DECAY_DATE":null,"INCLINATION":"53.0558","COUNTRY_CODE":"US","MEAN_MOTION_DDOT":"0.0000000000000","NORAD_CAT_ID":"47810","RA_OF_ASC_NODE":"345.6825","MEAN_ANOMALY":"300.5147","FILE":"3243681","BSTAR":"0.00004304100000","OBJECT_ID":"2021-018Z","OBJECT_TYPE":"PAYLOAD","CLASSIFICATION_TYPE":"U","SEMIMAJOR_AXIS":"6925.368","TLE_LINE2":"2 47810  53.0558 345.6825 0001867  59.6026 300.5147 15.06393815 44033","PERIAPSIS":"545.940","TIME_SYSTEM":"UTC","TLE_LINE1":"1 47810U 21018Z   21352.30015349  .00000359  00000-0  43041-4 0  9993","OBJECT_NAME":"STARLINK-2391","SITE":"AFETR","MEAN_MOTION":"15.06393815","EPOCH":"2021-12-18T07:12:13.261536","REF_FRAME":"TEME","REV_AT_EPOCH":"4403","CENTER_NAME":"EARTH","GP_ID":"191942907","ELEMENT_SET_NO":"999","RCS_SIZE":"LARGE","LAUNCH_DATE":"2021-03-11"},{"CENTER_NAME":"EARTH","EPOCH":"2021-12-18T09:44:48.943392","REV_AT_EPOCH":"4447","REF_FRAME":"TEME","MEAN_MOTION":"15.06394735","SITE":"AFETR","LAUNCH_DATE":"2021-03-11","ELEMENT_SET_NO":"999","RCS_SIZE":"LARGE","GP_ID":"191942658","BSTAR":"-0.00007228200000","FILE":"3243681","OBJECT_ID":"2021-018AA","MEAN_ANOMALY":"297.7350","RA_OF_ASC_NODE":"315.1968","NORAD_CAT_ID":"47811","TLE_LINE1":"1 47811U 21018AA  21352.40612203 -.00001358  00000-0 -72282-4 0  9998","OBJECT_NAME":"STARLINK-2392","TIME_SYSTEM":"UTC","PERIAPSIS":"545.891","TLE_LINE2":"2 47811  53.0570 315.1968 0001933  62.3835 297.7350 15.06394735 44474","OBJECT_TYPE":"PAYLOAD","SEMIMAJOR_AXIS":"6925.365","CLASSIFICATION_TYPE":"U","INCLINATION":"53.0570","DECAY_DATE":null,"MEAN_MOTION_DDOT":"0.0000000000000","COUNTRY_CODE":"US","PERIOD":"95.592","MEAN_ELEMENT_THEORY":"SGP4","ARG_OF_PERICENTER":"62.3835","ECCENTRICITY":"0.00019330","EPHEMERIS_TYPE":"0","MEAN_MOTION_DOT":"-0.00001358","APOAPSIS":"548.568"},{"SITE":"AFETR","REV_AT_EPOCH":"4397","EPOCH":"2021-12-18T07:28:08.816160","REF_FRAME":"TEME","MEAN_MOTION":"15.06392736","CENTER_NAME":"EARTH","GP_ID":"191941406","LAUNCH_DATE":"2021-03-11","ELEMENT_SET_NO":"999","RCS_SIZE":"LARGE","NORAD_CAT_ID":"47812","RA_OF_ASC_NODE":"345.6146","MEAN_ANOMALY":"294.6689","BSTAR":"0.00003106800000","FILE":"3243681","OBJECT_ID":"2021-018AB","CLASSIFICATION_TYPE":"U","OBJECT_TYPE":"PAYLOAD","SEMIMAJOR_AXIS":"6925.371","TIME_SYSTEM":"UTC","PERIAPSIS":"545.962","TLE_LINE2":"2 47812  53.0572 345.6146 0001839  65.4492 294.6689 15.06392736 43975","TLE_LINE1":"1 47812U 21018AB  21352.31121315  .00000181  00000-0  31068-4 0  9996","OBJECT_NAME":"STARLINK-2393","DECAY_DATE":null,"INCLINATION":"53.0572","COUNTRY_CODE":"US","MEAN_MOTION_DDOT":"0.0000000000000","ECCENTRICITY":"0.00018390","ARG_OF_PERICENTER":"65.4492","PERIOD":"95.593","MEAN_ELEMENT_THEORY":"SGP4","APOAPSIS":"548.509","EPHEMERIS_TYPE":"0","MEAN_MOTION_DOT":"0.00000181"},{"TLE_LINE1":"1 47813U 21018AC  21352.62727504  .00000814  00000-0  73520-4 0  9995","OBJECT_NAME":"STARLINK-2394","TIME_SYSTEM":"UTC","PERIAPSIS":"545.836","TLE_LINE2":"2 47813  53.0553 314.2103 0001987  64.5963 295.5231 15.06400396 44108","SEMIMAJOR_AXIS":"6925.347","OBJECT_TYPE":"PAYLOAD","CLASSIFICATION_TYPE":"U","FILE":"3243818","BSTAR":"0.00007352000000","OBJECT_ID":"2021-018AC","MEAN_ANOMALY":"295.5231","RA_OF_ASC_NODE":"314.2103","NORAD_CAT_ID":"47813","LAUNCH_DATE":"2021-03-11","RCS_SIZE":"LARGE","ELEMENT_SET_NO":"999","GP_ID":"191946840","CENTER_NAME":"EARTH","REF_FRAME":"TEME","EPOCH":"2021-12-18T15:03:16.563456","REV_AT_EPOCH":"4410","MEAN_MOTION":"15.06400396","SITE":"AFETR","EPHEMERIS_TYPE":"0","MEAN_MOTION_DOT":"0.00000814","APOAPSIS":"548.588","PERIOD":"95.592","MEAN_ELEMENT_THEORY":"SGP4","ARG_OF_PERICENTER":"64.5963","ECCENTRICITY":"0.00019870","MEAN_MOTION_DDOT":"0.0000000000000","COUNTRY_CODE":"US","INCLINATION":"53.0553","DECAY_DATE":null},{"ARG_OF_PERICENTER":"59.1433","PERIOD":"95.592","MEAN_ELEMENT_THEORY":"SGP4","ECCENTRICITY":"0.00019520","APOAPSIS":"548.557","EPHEMERIS_TYPE":"0","MEAN_MOTION_DOT":"0.00000737","INCLINATION":"53.0560","DECAY_DATE":null,"COUNTRY_CODE":"US","MEAN_MOTION_DDOT":"0.0000000000000","FILE":"3243681","OBJECT_ID":"2021-018AD","BSTAR":"0.00006838200000","NORAD_CAT_ID":"47814","RA_OF_ASC_NODE":"334.9966","MEAN_ANOMALY":"300.9748","OBJECT_NAME":"STARLINK-2395","TLE_LINE1":"1 47814U 21018AD  21352.45218931  .00000737  00000-0  68382-4 0  9990","CLASSIFICATION_TYPE":"U","OBJECT_TYPE":"PAYLOAD","SEMIMAJOR_AXIS":"6925.340","TIME_SYSTEM":"UTC","TLE_LINE2":"2 47814  53.0560 334.9966 0001952  59.1433 300.9748 15.06402675 44204","PERIAPSIS":"545.854","EPOCH":"2021-12-18T10:51:09.156384","REF_FRAME":"TEME","REV_AT_EPOCH":"4420","MEAN_MOTION":"15.06402675","CENTER_NAME":"EARTH","SITE":"AFETR","LAUNCH_DATE":"2021-03-11","ELEMENT_SET_NO":"999","RCS_SIZE":"MEDIUM","GP_ID":"191942408"},{"MEAN_ANOMALY":"299.3294","NORAD_CAT_ID":"47815","RA_OF_ASC_NODE":"330.4514","BSTAR":"0.00002228800000","FILE":"3243681","OBJECT_ID":"2021-018AE","TIME_SYSTEM":"UTC","TLE_LINE2":"2 47815  53.0550 330.4514 0001855  60.7880 299.3294 15.06400931 44198","PERIAPSIS":"545.926","SEMIMAJOR_AXIS":"6925.346","OBJECT_TYPE":"PAYLOAD","CLASSIFICATION_TYPE":"U","OBJECT_NAME":"STARLINK-2396","TLE_LINE1":"1 47815U 21018AE  21352.35129020  .00000050  00000-0  22288-4 0  9993","SITE":"AFETR","CENTER_NAME":"EARTH","REV_AT_EPOCH":"4419","EPOCH":"2021-12-18T08:25:51.473280","REF_FRAME":"TEME","MEAN_MOTION":"15.06400931","GP_ID":"191943158","LAUNCH_DATE":"2021-03-11","ELEMENT_SET_NO":"999","RCS_SIZE":"LARGE","ECCENTRICITY":"0.00018550","PERIOD":"95.592","MEAN_ELEMENT_THEORY":"SGP4","ARG_OF_PERICENTER":"60.7880","EPHEMERIS_TYPE":"0","MEAN_MOTION_DOT":"0.00000050","APOAPSIS":"548.495","DECAY_DATE":null,"INCLINATION":"53.0550","MEAN_MOTION_DDOT":"0.0000000000000","COUNTRY_CODE":"US"},{"DECAY_DATE":null,"INCLINATION":"53.0567","COUNTRY_CODE":"US","MEAN_MOTION_DDOT":"0.0000000000000","ECCENTRICITY":"0.00018940","ARG_OF_PERICENTER":"56.5494","MEAN_ELEMENT_THEORY":"SGP4","PERIOD":"95.592","APOAPSIS":"548.532","MEAN_MOTION_DOT":"-0.00001379","EPHEMERIS_TYPE":"0","SITE":"AFETR","MEAN_MOTION":"15.06397859","REF_FRAME":"TEME","EPOCH":"2021-12-18T16:36:09.377280","REV_AT_EPOCH":"4384","CENTER_NAME":"EARTH","GP_ID":"191947350","ELEMENT_SET_NO":"999","RCS_SIZE":"LARGE","LAUNCH_DATE":"2021-03-11","NORAD_CAT_ID":"47816","RA_OF_ASC_NODE":"333.9173","MEAN_ANOMALY":"303.5676","BSTAR":"-0.00007371600000","FILE":"3243788","OBJECT_ID":"2021-018AF","OBJECT_TYPE":"PAYLOAD","SEMIMAJOR_AXIS":"6925.355","CLASSIFICATION_TYPE":"U","PERIAPSIS":"545.908","TLE_LINE2":"2 47816  53.0567 333.9173 0001894  56.5494 303.5676 15.06397859 43840","TIME_SYSTEM":"UTC","OBJECT_NAME":"STARLINK-2399","TLE_LINE1":"1 47816U 21018AF  21352.69177520 -.00001379  00000-0 -73716-4 0  9998"}];
